{
  "type": "FeatureCollection",
  "features": [
    {
      "type": "Feature",
      "properties": {
        "norad_id": 40128,
        "name": "GSAT0201 (GALILEO 5)",
        "group": "gnss",
        "lat": 49.01933001791076,
        "lon": 6.613378391206898,
        "alt_km": 20466.092815222626,
        "timestamp": "2025-12-23T07:45:09.647816+00:00",
        "meta_object_name": "GSAT0201 (GALILEO 5)",
        "meta_object_id": "2014-050A",
        "meta_epoch": "2025-12-22T02:10:25.077792",
        "meta_mean_motion": 1.85519674,
        "meta_eccentricity": 0.16488719,
        "meta_inclination": 49.0659,
        "meta_ra_of_asc_node": 280.6824,
        "meta_arg_of_pericenter": 172.6344,
        "meta_mean_anomaly": 190.1824,
        "meta_ephemeris_type": 0,
        "meta_classification_type": "U",
        "meta_norad_cat_id": 40128,
        "meta_element_set_no": 999,
        "meta_rev_at_epoch": 7503,
        "meta_bstar": 0,
        "meta_mean_motion_dot": -3.7e-07,
        "meta_mean_motion_ddot": 0,
        "tle_line1": "1 40128U 14050A   25356.09056803 -.00000037  00000+0  00000+0 0  9996",
        "tle_line2": "2 40128  49.0659 280.6824 1648871 172.6344 190.1824  1.85519674 75038"
      },
      "geometry": {
        "type": "Point",
        "coordinates": [
          6.613378391206898,
          49.01933001791076
        ]
      }
    },
    {
      "type": "Feature",
      "properties": {
        "norad_id": 40129,
        "name": "GSAT0202 (GALILEO 6)",
        "group": "gnss",
        "lat": -35.9562763053823,
        "lon": -119.20993636784885,
        "alt_km": 24485.425540500237,
        "timestamp": "2025-12-23T07:45:09.647828+00:00",
        "meta_object_name": "GSAT0202 (GALILEO 6)",
        "meta_object_id": "2014-050B",
        "meta_epoch": "2025-12-18T13:46:22.484640",
        "meta_mean_motion": 1.85520466,
        "meta_eccentricity": 0.16491259,
        "meta_inclination": 49.0858,
        "meta_ra_of_asc_node": 279.9095,
        "meta_arg_of_pericenter": 173.2442,
        "meta_mean_anomaly": 189.3393,
        "meta_ephemeris_type": 0,
        "meta_classification_type": "U",
        "meta_norad_cat_id": 40129,
        "meta_element_set_no": 999,
        "meta_rev_at_epoch": 7713,
        "meta_bstar": 0,
        "meta_mean_motion_dot": -5.9e-07,
        "meta_mean_motion_ddot": 0,
        "tle_line1": "1 40129U 14050B   25352.57387135 -.00000059  00000+0  00000+0 0  9995",
        "tle_line2": "2 40129  49.0858 279.9095 1649125 173.2442 189.3393  1.85520466 77135"
      },
      "geometry": {
        "type": "Point",
        "coordinates": [
          -119.20993636784885,
          -35.9562763053823
        ]
      }
    },
    {
      "type": "Feature",
      "properties": {
        "norad_id": 40269,
        "name": "IRNSS-1C",
        "group": "gnss",
        "lat": -1.9911600813348986,
        "lon": -68.75035924471392,
        "alt_km": 35858.75928081952,
        "timestamp": "2025-12-23T07:45:09.647839+00:00",
        "meta_object_name": "IRNSS-1C",
        "meta_object_id": "2014-061A",
        "meta_epoch": "2025-12-22T20:24:27.813024",
        "meta_mean_motion": 1.00273611,
        "meta_eccentricity": 0.00180781,
        "meta_inclination": 6.0675,
        "meta_ra_of_asc_node": 92.4189,
        "meta_arg_of_pericenter": 1.0626,
        "meta_mean_anomaly": 27.2859,
        "meta_ephemeris_type": 0,
        "meta_classification_type": "U",
        "meta_norad_cat_id": 40269,
        "meta_element_set_no": 999,
        "meta_rev_at_epoch": 4092,
        "meta_bstar": 0,
        "meta_mean_motion_dot": -1.44e-06,
        "meta_mean_motion_ddot": 0,
        "tle_line1": "1 40269U 14061A   25356.85032191 -.00000144  00000+0  00000+0 0  9991",
        "tle_line2": "2 40269   6.0675  92.4189 0018078   1.0626  27.2859  1.00273611 40928"
      },
      "geometry": {
        "type": "Point",
        "coordinates": [
          -68.75035924471392,
          -1.9911600813348986
        ]
      }
    },
    {
      "type": "Feature",
      "properties": {
        "norad_id": 40294,
        "name": "GPS BIIF-8  (PRN 03)",
        "group": "gnss",
        "lat": -54.18353126692784,
        "lon": -27.02231794113879,
        "alt_km": 20319.512814441714,
        "timestamp": "2025-12-23T07:45:09.647850+00:00",
        "meta_object_name": "GPS BIIF-8  (PRN 03)",
        "meta_object_id": "2014-068A",
        "meta_epoch": "2025-12-21T10:24:33.832224",
        "meta_mean_motion": 2.00565456,
        "meta_eccentricity": 0.00608151,
        "meta_inclination": 56.8641,
        "meta_ra_of_asc_node": 37.8098,
        "meta_arg_of_pericenter": 69.0115,
        "meta_mean_anomaly": 291.7086,
        "meta_ephemeris_type": 0,
        "meta_classification_type": "U",
        "meta_norad_cat_id": 40294,
        "meta_element_set_no": 999,
        "meta_rev_at_epoch": 8164,
        "meta_bstar": 0,
        "meta_mean_motion_dot": -5.2e-07,
        "meta_mean_motion_ddot": 0,
        "tle_line1": "1 40294U 14068A   25355.43372491 -.00000052  00000+0  00000+0 0  9997",
        "tle_line2": "2 40294  56.8641  37.8098 0060815  69.0115 291.7086  2.00565456 81643"
      },
      "geometry": {
        "type": "Point",
        "coordinates": [
          -27.02231794113879,
          -54.18353126692784
        ]
      }
    },
    {
      "type": "Feature",
      "properties": {
        "norad_id": 40315,
        "name": "COSMOS 2501 (702K)",
        "group": "gnss",
        "lat": -3.735753305632447,
        "lon": -165.3954209271322,
        "alt_km": 19176.063148971454,
        "timestamp": "2025-12-23T07:45:09.647861+00:00",
        "meta_object_name": "COSMOS 2501 (702K)",
        "meta_object_id": "2014-075A",
        "meta_epoch": "2025-12-19T02:31:27.452640",
        "meta_mean_motion": 2.13101513,
        "meta_eccentricity": 0.0020099,
        "meta_inclination": 63.6146,
        "meta_ra_of_asc_node": 196.6046,
        "meta_arg_of_pericenter": 204.1838,
        "meta_mean_anomaly": 155.7988,
        "meta_ephemeris_type": 0,
        "meta_classification_type": "U",
        "meta_norad_cat_id": 40315,
        "meta_element_set_no": 999,
        "meta_rev_at_epoch": 8601,
        "meta_bstar": 0,
        "meta_mean_motion_dot": 1.06e-06,
        "meta_mean_motion_ddot": 0,
        "tle_line1": "1 40315U 14075A   25353.10517885  .00000106  00000+0  00000+0 0  9998",
        "tle_line2": "2 40315  63.6146 196.6046 0020099 204.1838 155.7988  2.13101513 86014"
      },
      "geometry": {
        "type": "Point",
        "coordinates": [
          -165.3954209271322,
          -3.735753305632447
        ]
      }
    },
    {
      "type": "Feature",
      "properties": {
        "norad_id": 40534,
        "name": "GPS BIIF-9  (PRN 26)",
        "group": "gnss",
        "lat": -9.38107071699228,
        "lon": 38.57086931247783,
        "alt_km": 20437.549888849717,
        "timestamp": "2025-12-23T07:45:09.647872+00:00",
        "meta_object_name": "GPS BIIF-9  (PRN 26)",
        "meta_object_id": "2015-013A",
        "meta_epoch": "2025-12-22T13:27:33.794784",
        "meta_mean_motion": 2.00561992,
        "meta_eccentricity": 0.01074276,
        "meta_inclination": 53.1964,
        "meta_ra_of_asc_node": 211.4834,
        "meta_arg_of_pericenter": 38.7225,
        "meta_mean_anomaly": 322.126,
        "meta_ephemeris_type": 0,
        "meta_classification_type": "U",
        "meta_norad_cat_id": 40534,
        "meta_element_set_no": 999,
        "meta_rev_at_epoch": 7828,
        "meta_bstar": 0,
        "meta_mean_motion_dot": 7.5e-07,
        "meta_mean_motion_ddot": 0,
        "tle_line1": "1 40534U 15013A   25356.56080781  .00000075  00000+0  00000+0 0  9992",
        "tle_line2": "2 40534  53.1964 211.4834 0107427  38.7225 322.1260  2.00561992 78282"
      },
      "geometry": {
        "type": "Point",
        "coordinates": [
          38.57086931247783,
          -9.38107071699228
        ]
      }
    },
    {
      "type": "Feature",
      "properties": {
        "norad_id": 40544,
        "name": "GSAT0203 (GALILEO 7)",
        "group": "gnss",
        "lat": 41.60028286894741,
        "lon": 21.857891557302313,
        "alt_km": 23231.209645099116,
        "timestamp": "2025-12-23T07:45:09.647883+00:00",
        "meta_object_name": "GSAT0203 (GALILEO 7)",
        "meta_object_id": "2015-017A",
        "meta_epoch": "2025-12-20T21:23:15.511200",
        "meta_mean_motion": 1.70475982,
        "meta_eccentricity": 0.00064626,
        "meta_inclination": 56.8444,
        "meta_ra_of_asc_node": 346.4578,
        "meta_arg_of_pericenter": 274.4172,
        "meta_mean_anomaly": 85.5182,
        "meta_ephemeris_type": 0,
        "meta_classification_type": "U",
        "meta_norad_cat_id": 40544,
        "meta_element_set_no": 999,
        "meta_rev_at_epoch": 6616,
        "meta_bstar": 0,
        "meta_mean_motion_dot": -6.9e-07,
        "meta_mean_motion_ddot": 0,
        "tle_line1": "1 40544U 15017A   25354.89115175 -.00000069  00000+0  00000+0 0  9991",
        "tle_line2": "2 40544  56.8444 346.4578 0006462 274.4172  85.5182  1.70475982 66163"
      },
      "geometry": {
        "type": "Point",
        "coordinates": [
          21.857891557302313,
          41.60028286894741
        ]
      }
    }
  ]
}